QIANFAN-35              
1 61568U 24185S   26062.48896162  .00001041  00000+0  41323-3 0  9997
2 61568  88.9743  67.3824 0007698  37.7650 322.4083 14.28113814 81706
QIANFAN-36              
1 61569U 24185T   26062.49203340  .00000152  00000+0  20113-3 0  9995
2 61569  88.9716  72.6174 0006823 151.6630 208.4896 13.55613250 78863
QIANFAN-37              
1 62238U 24232B   26062.42594088  .00000085  00000+0  11252-3 0  9996
2 62238  89.0047  33.1782 0001644  96.6465 263.4873 13.51005002110064
QIANFAN-38              
1 62239U 24232C   26062.45057843  .00000066  00000+0  84321-4 0  9990
2 62239  89.0054  33.0971 0013616 329.9219  30.1149 13.51003569110121
QIANFAN-39              
1 62240U 24232D   26062.43425183  .00000453  00000+0  18578-3 0  9996
2 62240  89.0053  28.0764 0016273 165.9531 194.2118 14.25434203112881
QIANFAN-40              
1 62241U 24232E   26062.48349273  .00000077  00000+0  10092-3 0  9992
2 62241  89.0082  32.7009 0012942 338.8573  21.2041 13.51002803110498
QIANFAN-41              
1 62242U 24232F   26062.41770332  .00000106  00000+0  14602-3 0  9994
2 62242  89.0052  33.0505 0012908 326.1739  33.8587 13.51004545110148
QIANFAN-42              
1 62243U 24232G   26062.48360712  .00000431  00000+0  17942-3 0  9990
2 62243  89.0051  28.1301 0014899 171.2984 188.8469 14.24528257112862
QIANFAN-43              
1 62244U 24232H   26062.48761035  .00000071  00000+0  91278-4 0  9999
2 62244  89.0056  33.1124 0014591 330.7063  29.3269 13.51004494 78764
QIANFAN-44              
1 62245U 24232J   26062.47527204  .00000070  00000+0  89240-4 0  9992
2 62245  89.0055  32.9231 0012726 328.5987  31.4403 13.51002420110238
QIANFAN-45              
1 62246U 24232K   26062.44237963  .00000055  00000+0  66309-4 0  9994
2 62246  89.0059  33.0757 0013374 327.9085  32.1251 13.51000087110157
QIANFAN-46              
1 62247U 24232L   26062.46702985  .00000074  00000+0  96387-4 0  9998
2 62247  89.0054  33.1389 0013603 333.6541  26.3917 13.51003009110118
QIANFAN-47              
1 62248U 24232M   26062.47114144  .00000080  00000+0  10503-3 0  9996
2 62248  89.0050  33.0683 0014009 332.4917  27.5491 13.51002980110146
QIANFAN-48              
1 62249U 24232N   26062.43411879  .00000066  00000+0  83860-4 0  9999
2 62249  89.0054  33.0770 0016338 334.2866  25.7472 13.51003103110145
QIANFAN-49              
1 62250U 24232P   26062.42177681  .00000082  00000+0  10857-3 0  9993
2 62250  89.0053  33.0902 0013253 330.0637  29.9755 13.51002262 78739
QIANFAN-50              
1 62251U 24232Q   26062.44645392  .00000064  00000+0  81060-4 0  9990
2 62251  89.0059  33.1001 0014938 330.5690  29.4619 13.51003185 78764
QIANFAN-51              
1 62252U 24232R   26062.43002861  .00000071  00000+0  91219-4 0  9993
2 62252  89.0053  33.0908 0012581 335.8945  24.1615 13.51003977 78753
