[{"OBJECT_NAME":"QIANFAN-35","OBJECT_ID":"2024-185S","EPOCH":"2026-03-03T11:44:06.283968","MEAN_MOTION":14.28113814,"ECCENTRICITY":0.0007698,"INCLINATION":88.9743,"RA_OF_ASC_NODE":67.3824,"ARG_OF_PERICENTER":37.765,"MEAN_ANOMALY":322.4083,"EPHEMERIS_TYPE":0,"CLASSIFICATION_TYPE":"U","NORAD_CAT_ID":61568,"ELEMENT_SET_NO":999,"REV_AT_EPOCH":8170,"BSTAR":0.00041323,"MEAN_MOTION_DOT":1.041e-5,"MEAN_MOTION_DDOT":0},{"OBJECT_NAME":"QIANFAN-36","OBJECT_ID":"2024-185T","EPOCH":"2026-03-03T11:48:31.685760","MEAN_MOTION":13.5561325,"ECCENTRICITY":0.0006823,"INCLINATION":88.9716,"RA_OF_ASC_NODE":72.6174,"ARG_OF_PERICENTER":151.663,"MEAN_ANOMALY":208.4896,"EPHEMERIS_TYPE":0,"CLASSIFICATION_TYPE":"U","NORAD_CAT_ID":61569,"ELEMENT_SET_NO":999,"REV_AT_EPOCH":7886,"BSTAR":0.00020113,"MEAN_MOTION_DOT":1.52e-6,"MEAN_MOTION_DDOT":0},{"OBJECT_NAME":"QIANFAN-37","OBJECT_ID":"2024-232B","EPOCH":"2026-03-03T10:13:21.292032","MEAN_MOTION":13.51005002,"ECCENTRICITY":0.0001644,"INCLINATION":89.0047,"RA_OF_ASC_NODE":33.1782,"ARG_OF_PERICENTER":96.6465,"MEAN_ANOMALY":263.4873,"EPHEMERIS_TYPE":0,"CLASSIFICATION_TYPE":"U","NORAD_CAT_ID":62238,"ELEMENT_SET_NO":999,"REV_AT_EPOCH":11006,"BSTAR":0.00011252,"MEAN_MOTION_DOT":8.5e-7,"MEAN_MOTION_DDOT":0},{"OBJECT_NAME":"QIANFAN-38","OBJECT_ID":"2024-232C","EPOCH":"2026-03-03T10:48:49.976352","MEAN_MOTION":13.51003569,"ECCENTRICITY":0.0013616,"INCLINATION":89.0054,"RA_OF_ASC_NODE":33.0971,"ARG_OF_PERICENTER":329.9219,"MEAN_ANOMALY":30.1149,"EPHEMERIS_TYPE":0,"CLASSIFICATION_TYPE":"U","NORAD_CAT_ID":62239,"ELEMENT_SET_NO":999,"REV_AT_EPOCH":11012,"BSTAR":8.4321e-5,"MEAN_MOTION_DOT":6.6e-7,"MEAN_MOTION_DDOT":0},{"OBJECT_NAME":"QIANFAN-39","OBJECT_ID":"2024-232D","EPOCH":"2026-03-03T10:25:19.358112","MEAN_MOTION":14.25434203,"ECCENTRICITY":0.0016273,"INCLINATION":89.0053,"RA_OF_ASC_NODE":28.0764,"ARG_OF_PERICENTER":165.9531,"MEAN_ANOMALY":194.2118,"EPHEMERIS_TYPE":0,"CLASSIFICATION_TYPE":"U","NORAD_CAT_ID":62240,"ELEMENT_SET_NO":999,"REV_AT_EPOCH":11288,"BSTAR":0.00018578,"MEAN_MOTION_DOT":4.53e-6,"MEAN_MOTION_DDOT":0},{"OBJECT_NAME":"QIANFAN-40","OBJECT_ID":"2024-232E","EPOCH":"2026-03-03T11:36:13.771872","MEAN_MOTION":13.51002803,"ECCENTRICITY":0.0012942,"INCLINATION":89.0082,"RA_OF_ASC_NODE":32.7009,"ARG_OF_PERICENTER":338.8573,"MEAN_ANOMALY":21.2041,"EPHEMERIS_TYPE":0,"CLASSIFICATION_TYPE":"U","NORAD_CAT_ID":62241,"ELEMENT_SET_NO":999,"REV_AT_EPOCH":11049,"BSTAR":0.00010092,"MEAN_MOTION_DOT":7.7e-7,"MEAN_MOTION_DDOT":0},{"OBJECT_NAME":"QIANFAN-41","OBJECT_ID":"2024-232F","EPOCH":"2026-03-03T10:01:29.566848","MEAN_MOTION":13.51004545,"ECCENTRICITY":0.0012908,"INCLINATION":89.0052,"RA_OF_ASC_NODE":33.0505,"ARG_OF_PERICENTER":326.1739,"MEAN_ANOMALY":33.8587,"EPHEMERIS_TYPE":0,"CLASSIFICATION_TYPE":"U","NORAD_CAT_ID":62242,"ELEMENT_SET_NO":999,"REV_AT_EPOCH":11014,"BSTAR":0.00014602,"MEAN_MOTION_DOT":1.06e-6,"MEAN_MOTION_DDOT":0},{"OBJECT_NAME":"QIANFAN-42","OBJECT_ID":"2024-232G","EPOCH":"2026-03-03T11:36:23.655168","MEAN_MOTION":14.24528257,"ECCENTRICITY":0.0014899,"INCLINATION":89.0051,"RA_OF_ASC_NODE":28.1301,"ARG_OF_PERICENTER":171.2984,"MEAN_ANOMALY":188.8469,"EPHEMERIS_TYPE":0,"CLASSIFICATION_TYPE":"U","NORAD_CAT_ID":62243,"ELEMENT_SET_NO":999,"REV_AT_EPOCH":11286,"BSTAR":0.00017942,"MEAN_MOTION_DOT":4.31e-6,"MEAN_MOTION_DDOT":0},{"OBJECT_NAME":"QIANFAN-43","OBJECT_ID":"2024-232H","EPOCH":"2026-03-03T11:42:09.534240","MEAN_MOTION":13.51004494,"ECCENTRICITY":0.0014591,"INCLINATION":89.0056,"RA_OF_ASC_NODE":33.1124,"ARG_OF_PERICENTER":330.7063,"MEAN_ANOMALY":29.3269,"EPHEMERIS_TYPE":0,"CLASSIFICATION_TYPE":"U","NORAD_CAT_ID":62244,"ELEMENT_SET_NO":999,"REV_AT_EPOCH":7876,"BSTAR":9.1278e-5,"MEAN_MOTION_DOT":7.1e-7,"MEAN_MOTION_DDOT":0},{"OBJECT_NAME":"QIANFAN-44","OBJECT_ID":"2024-232J","EPOCH":"2026-03-03T11:24:23.504256","MEAN_MOTION":13.5100242,"ECCENTRICITY":0.0012726,"INCLINATION":89.0055,"RA_OF_ASC_NODE":32.9231,"ARG_OF_PERICENTER":328.5987,"MEAN_ANOMALY":31.4403,"EPHEMERIS_TYPE":0,"CLASSIFICATION_TYPE":"U","NORAD_CAT_ID":62245,"ELEMENT_SET_NO":999,"REV_AT_EPOCH":11023,"BSTAR":8.924e-5,"MEAN_MOTION_DOT":7.0e-7,"MEAN_MOTION_DDOT":0},{"OBJECT_NAME":"QIANFAN-45","OBJECT_ID":"2024-232K","EPOCH":"2026-03-03T10:37:01.600032","MEAN_MOTION":13.51000087,"ECCENTRICITY":0.0013374,"INCLINATION":89.0059,"RA_OF_ASC_NODE":33.0757,"ARG_OF_PERICENTER":327.9085,"MEAN_ANOMALY":32.1251,"EPHEMERIS_TYPE":0,"CLASSIFICATION_TYPE":"U","NORAD_CAT_ID":62246,"ELEMENT_SET_NO":999,"REV_AT_EPOCH":11015,"BSTAR":6.6309e-5,"MEAN_MOTION_DOT":5.5e-7,"MEAN_MOTION_DDOT":0},{"OBJECT_NAME":"QIANFAN-46","OBJECT_ID":"2024-232L","EPOCH":"2026-03-03T11:12:31.379040","MEAN_MOTION":13.51003009,"ECCENTRICITY":0.0013603,"INCLINATION":89.0054,"RA_OF_ASC_NODE":33.1389,"ARG_OF_PERICENTER":333.6541,"MEAN_ANOMALY":26.3917,"EPHEMERIS_TYPE":0,"CLASSIFICATION_TYPE":"U","NORAD_CAT_ID":62247,"ELEMENT_SET_NO":999,"REV_AT_EPOCH":11011,"BSTAR":9.6387e-5,"MEAN_MOTION_DOT":7.4e-7,"MEAN_MOTION_DDOT":0},{"OBJECT_NAME":"QIANFAN-47","OBJECT_ID":"2024-232M","EPOCH":"2026-03-03T11:18:26.620416","MEAN_MOTION":13.5100298,"ECCENTRICITY":0.0014009,"INCLINATION":89.005,"RA_OF_ASC_NODE":33.0683,"ARG_OF_PERICENTER":332.4917,"MEAN_ANOMALY":27.5491,"EPHEMERIS_TYPE":0,"CLASSIFICATION_TYPE":"U","NORAD_CAT_ID":62248,"ELEMENT_SET_NO":999,"REV_AT_EPOCH":11014,"BSTAR":0.00010503,"MEAN_MOTION_DOT":8.0e-7,"MEAN_MOTION_DDOT":0},{"OBJECT_NAME":"QIANFAN-48","OBJECT_ID":"2024-232N","EPOCH":"2026-03-03T10:25:07.863456","MEAN_MOTION":13.51003103,"ECCENTRICITY":0.0016338,"INCLINATION":89.0054,"RA_OF_ASC_NODE":33.077,"ARG_OF_PERICENTER":334.2866,"MEAN_ANOMALY":25.7472,"EPHEMERIS_TYPE":0,"CLASSIFICATION_TYPE":"U","NORAD_CAT_ID":62249,"ELEMENT_SET_NO":999,"REV_AT_EPOCH":11014,"BSTAR":8.386e-5,"MEAN_MOTION_DOT":6.6e-7,"MEAN_MOTION_DDOT":0},{"OBJECT_NAME":"QIANFAN-49","OBJECT_ID":"2024-232P","EPOCH":"2026-03-03T10:07:21.516384","MEAN_MOTION":13.51002262,"ECCENTRICITY":0.0013253,"INCLINATION":89.0053,"RA_OF_ASC_NODE":33.0902,"ARG_OF_PERICENTER":330.0637,"MEAN_ANOMALY":29.9755,"EPHEMERIS_TYPE":0,"CLASSIFICATION_TYPE":"U","NORAD_CAT_ID":62250,"ELEMENT_SET_NO":999,"REV_AT_EPOCH":7873,"BSTAR":0.00010857,"MEAN_MOTION_DOT":8.2e-7,"MEAN_MOTION_DDOT":0},{"OBJECT_NAME":"QIANFAN-50","OBJECT_ID":"2024-232Q","EPOCH":"2026-03-03T10:42:53.618688","MEAN_MOTION":13.51003185,"ECCENTRICITY":0.0014938,"INCLINATION":89.0059,"RA_OF_ASC_NODE":33.1001,"ARG_OF_PERICENTER":330.569,"MEAN_ANOMALY":29.4619,"EPHEMERIS_TYPE":0,"CLASSIFICATION_TYPE":"U","NORAD_CAT_ID":62251,"ELEMENT_SET_NO":999,"REV_AT_EPOCH":7876,"BSTAR":8.106e-5,"MEAN_MOTION_DOT":6.4e-7,"MEAN_MOTION_DDOT":0},{"OBJECT_NAME":"QIANFAN-51","OBJECT_ID":"2024-232R","EPOCH":"2026-03-03T10:19:14.471904","MEAN_MOTION":13.51003977,"ECCENTRICITY":0.0012581,"INCLINATION":89.0053,"RA_OF_ASC_NODE":33.0908,"ARG_OF_PERICENTER":335.8945,"MEAN_ANOMALY":24.1615,"EPHEMERIS_TYPE":0,"CLASSIFICATION_TYPE":"U","NORAD_CAT_ID":62252,"ELEMENT_SET_NO":999,"REV_AT_EPOCH":7875,"BSTAR":9.1219e-5,"MEAN_MOTION_DOT":7.1e-7,"MEAN_MOTION_DDOT":0}]
